ONEWEB-0264             
1 48982U 21060R   24093.54052801 -.00000012  00000+0 -65977-4 0  9995
2 48982  87.9139  29.1340 0001796  77.4266 282.7066 13.16596642133588
ONEWEB-0266             
1 48984U 21060T   24093.56192282  .00000050  00000+0  96152-4 0  9996
2 48984  87.9137  29.1091 0001924  82.9931 277.1419 13.16595027133579
ONEWEB-0267             
1 48985U 21060U   24093.80098491  .00000073  00000+0  15805-3 0  9991
2 48985  87.9140  29.0628 0001550  69.3363 290.7934 13.16596042134901
ONEWEB-0268             
1 48986U 21060V   24093.54133135 -.00000077  00000+0 -23400-3 0  9994
2 48986  87.9140  29.1204 0001884  74.1133 286.0206 13.16594725133840
ONEWEB-0269             
1 48987U 21060W   24093.82630719  .00000040  00000+0  71404-4 0  9992
2 48987  87.9144  29.0870 0001958  77.7222 282.4129 13.16597218134950
ONEWEB-0270             
1 48988U 21060X   24093.53974068 -.00001037  00000+0 -27458-2 0  9996
2 48988  87.9137  29.1301 0001243  83.0553 277.0719 13.16588214133654
ONEWEB-0271             
1 48989U 21060Y   24093.52706933  .00000011  00000+0 -47080-5 0  9996
2 48989  87.9140  29.1081 0001484  72.8967 287.2327 13.16597186133652
ONEWEB-0272             
1 48990U 21060Z   24093.54923479  .00000010  00000+0 -68718-5 0  9996
2 48990  87.9140  29.1315 0001626  73.3590 286.7719 13.16596498133609
